PROMETHEUS 2-3          
1 41855U 16067H   25283.14599031  .00145171  00000+0  13749-2 0  9999
2 41855  98.0434 151.0813 0005247 137.2007 222.9661 15.66470289489456
CORVUS BC2              
1 42846U 17042X   25282.98156031  .00004098  00000+0  30089-3 0  9993
2 42846  97.3844  89.8358 0012144 244.1562 115.8412 15.03933550449427
CORVUS BC1              
1 42847U 17042Y   25283.01245927  .00005049  00000+0  36734-3 0  9992
2 42847  97.3879  90.4941 0011801 220.0557 139.9800 15.04174207449456
MIRATA                  
1 43015U 17073C   25283.17807810  .00576738  12644-3  21308-2 0  9995
2 43015  97.5074 185.4234 0025868   5.6844 354.4716 15.87587803429928
MAKERSAT 0              
1 43016U 17073D   25283.13217322  .00018196  00000+0  66047-3 0  9993
2 43016  97.4958 160.2963 0138250  74.6221 287.0240 15.19714402428322
SIRION PATHFINDER-2     
1 43759U 18099B   25283.07209367  .00005610  00000+0  33674-3 0  9996
2 43759  97.4637 333.0669 0011110  86.1482 274.1018 15.11261530374809
CORVUS BC4              
1 43767U 18099K   25283.09913685  .00004675  00000+0  29452-3 0  9991
2 43767  97.4444 328.3278 0010010 136.3426 223.8597 15.09589565374633
SPACEBEE-7              
1 43816U 18099BL  25283.13437100  .00052234  00000+0  10572-2 0  9990
2 43816  97.4819 356.2701 0004229  41.0596 319.0970 15.46260622375668
SHIELDS 1               
1 43850U 18104B   25283.05492395  .00057074  00000+0  44081-3 0  9993
2 43850  85.0087 309.7474 0005731  58.9186 301.2644 15.71692625380619
DUCHIFAT-3              
1 44854U 19089C   25283.12178280  .00120169  00000+0  12321-2 0  9990
2 44854  36.9363 288.7668 0007788 198.7293 161.3183 15.63616620322074
M2 PATHFINDER           
1 45727U 20037E   25283.07718059  .00003046  00000+0  23131-3 0  9999
2 45727  97.8139 106.7208 0011191 279.1007  80.8952 15.02922120287909
NETSAT-4                
1 46504U 20068U   25283.21739954  .00017380  00000+0  53115-3 0  9991
2 46504  97.8573 268.3268 0009068 119.7212 240.4933 15.33913068277326
NETSAT-3                
1 46505U 20068V   25282.48087530  .00017129  00000+0  54901-3 0  9991
2 46505  97.8582 266.1984 0008399 131.3966 228.7997 15.32402823277151
NETSAT-1                
1 46506U 20068W   25282.48425794  .00013586  00000+0  51846-3 0  9998
2 46506  97.8618 263.0747 0007468 146.5967 213.5743 15.26769486276941
NETSAT-2                
1 46507U 20068X   25282.50932117  .00019403  00000+0  59259-3 0  9994
2 46507  97.8577 267.0161 0006750 139.7186 220.4557 15.33926293277153
WILDTRACKCUBE-SIMBA     
1 47941U 21022K   25283.17316355  .00057583  00000+0  85036-3 0  9995
2 47941  97.4067 191.0631 0006132 194.7653 165.3423 15.55148047252179
LEDSAT                  
1 49069U 21073D   25283.13794661  .01064614  67417-3  12271-2 0  9993
2 49069  97.3608  12.0389 0008247 286.1807  73.8569 16.09056103230700
GREENCUBE (IO-117)      
1 53109U 22080E   25282.29836647 -.00000003  00000+0  00000+0 0  9996
2 53109  70.1617  25.4810 0008640 342.7532  17.2833  6.42583557 75940
SITRO-AIS 5 (KATYS)     
1 57176U 23091L   25283.19871138  .00010874  00000+0  47350-3 0  9990
2 57176  97.5435 340.4388 0011890 260.4516  99.5376 15.22336089126214
SITRO-AIS 6 (CHIRKIN)   
1 57192U 23091AC  25283.20149773  .00007077  00000+0  31514-3 0  9999
2 57192  97.5435 340.4131 0011288 260.4345  99.5615 15.21714537126212
SITRO-AIS 8 (ANOKHIN)   
1 57193U 23091AD  25283.17567654  .00013450  00000+0  55779-3 0  9999
2 57193  97.5432 341.1929 0011201 258.5942 101.4037 15.23945523126268
SITRO-AIS 7 (FARTUSHNIY)
1 57194U 23091AE  25283.16631288  .00006635  00000+0  29699-3 0  9993
2 57194  97.5436 340.2954 0011129 261.6788  98.3186 15.21566349126209
SITRO-AIS 10 (BURDAEV)  
1 57199U 23091AK  25283.19757019  .00016221  00000+0  59768-3 0  9994
2 57199  97.5443 344.2313 0007543 235.3576 124.6952 15.27879689126454
SITRO-AIS 9 (SHCHUKIN)  
1 57201U 23091AM  25283.16596637  .00015853  00000+0  58841-3 0  9993
2 57201  97.5444 344.0705 0007519 235.7387 124.3141 15.27643557126448
SITRO-AIS 12 (SMIRENNIY)
1 57204U 23091AQ  25283.19713294  .00016251  00000+0  59899-3 0  9996
2 57204  97.5451 344.4379 0007535 228.5256 131.5337 15.27866327126464
SITRO-AIS 11 (SHEFFER)  
1 57208U 23091AU  25283.19792574  .00018020  00000+0  65885-3 0  9996
2 57208  97.5450 344.5663 0007453 228.6235 131.4364 15.28111507126475
ROBUSTA-1E (ENSO)       
1 58470U 23185J   25281.93581024  .00297561  00000+0  15281-2 0  9991
2 58470  97.3562   2.3759 0004010 303.5658  56.5227 15.80429301104004
SITRO-AIS 25            
1 59066U 24039R   25283.18342925  .00007131  00000+0  58456-3 0  9990
2 59066  95.3901  63.5691 0153718 120.3562 241.2964 14.90540831 87445
SITRO-AIS 26            
1 59067U 24039S   25283.15453851  .00007893  00000+0  64880-3 0  9992
2 59067  95.3906  63.4912 0154066 120.7540 240.8960 14.90386719 87436
SITRO-AIS 27            
1 59068U 24039T   25283.18930265  .00007166  00000+0  58525-3 0  9997
2 59068  95.3901  63.6827 0153208 119.8091 241.8467 14.90730942 87452
SITRO-AIS 28            
1 59071U 24039U   25283.17306207  .00006739  00000+0  55022-3 0  9997
2 59071  95.3906  63.7050 0153037 119.7360 241.9192 14.90774726 87452
GRBBETA                 
1 60237U 24128C   25282.53978273  .00005572  00000+0  40367-3 0  9999
2 60237  61.9929  13.9873 0056915  83.1420 277.6142 15.03870797 68539
OOV-CUBE (TUBSAT-30)    
1 60240U 24128F   25282.67433428  .00003527  00000+0  28094-3 0  9997
2 60240  61.9977  18.0769 0058420  80.6277 280.1412 15.01051487 68489
ROBUSTA-3A (MEDITERRAN*)
1 60243U 24128J   25282.45631036  .00009483  00000+0  62652-3 0  9996
2 60243  61.9898  11.8133 0056231  77.1557 283.5810 15.06688715 68574
LASARSAT                
1 62391U 24247Q   25283.18046009  .00024855  00000+0  83491-3 0  9999
2 62391  44.9797 210.3050 0004945  57.8887 302.2476 15.30459862 44813
CROCUBE                 
1 62394U 24247T   25283.15236073  .00026536  00000+0  87918-3 0  9997
2 62394  44.9753 210.0487 0006219  69.0918 291.0631 15.30866394 44815
